{
    "argument_of_periapsis": 73.96250215,
    "ascending_node_longitude": 0.0,
    "direction": "CW",
    "eccentricity": 0.047220087,
    "inclination": 0.77298127,
    "mass": 8.6810E25,
    "name": "uranus",
    "parent": "sun",
    "semimajor": 2870671400E3,
    "start": "periapsis"
}
